[
    {
        "CCSDS_OMM_VERS": "3.0",
        "COMMENT": "GENERATED VIA SPACE-TRACK.ORG API",
        "CREATION_DATE": "2025-03-02T18:08:23",
        "ORIGINATOR": "18 SPCS",
        "OBJECT_NAME": "BEIDOU 3M16",
        "OBJECT_ID": "2018-078B",
        "CENTER_NAME": "EARTH",
        "REF_FRAME": "TEME",
        "TIME_SYSTEM": "UTC",
        "MEAN_ELEMENT_THEORY": "SGP4",
        "EPOCH": "2025-03-02T04:06:49.170816",
        "MEAN_MOTION": "1.86232004",
        "ECCENTRICITY": "0.00051270",
        "INCLINATION": "54.5039",
        "RA_OF_ASC_NODE": "316.4832",
        "ARG_OF_PERICENTER": "26.8105",
        "MEAN_ANOMALY": "333.2732",
        "EPHEMERIS_TYPE": "0",
        "CLASSIFICATION_TYPE": "U",
        "NORAD_CAT_ID": "43648",
        "ELEMENT_SET_NO": "999",
        "REV_AT_EPOCH": "4338",
        "BSTAR": "0.00000000000000",
        "MEAN_MOTION_DOT": "-0.00000054",
        "MEAN_MOTION_DDOT": "0.0000000000000",
        "SEMIMAJOR_AXIS": "27906.088",
        "PERIOD": "773.229",
        "APOAPSIS": "21542.261",
        "PERIAPSIS": "21513.646",
        "OBJECT_TYPE": "PAYLOAD",
        "RCS_SIZE": "LARGE",
        "COUNTRY_CODE": "PRC",
        "LAUNCH_DATE": "2018-10-15",
        "SITE": "XSC",
        "DECAY_DATE": null,
        "FILE": "4657142",
        "GP_ID": "282087191",
        "TLE_LINE0": "0 BEIDOU 3M16",
        "TLE_LINE1": "1 43648U 18078B   25061.17140244 -.00000054  00000-0  00000-0 0  9996",
        "TLE_LINE2": "2 43648  54.5039 316.4832 0005127  26.8105 333.2732  1.86232004 43384"
    }
]